[{"OBJECT_NAME":"ONEWEB-0186","OBJECT_ID":"2021-031V","EPOCH":"2026-03-09T16:58:32.104992","MEAN_MOTION":13.14503345,"ECCENTRICITY":0.00017421,"INCLINATION":87.899,"RA_OF_ASC_NODE":309.5438,"ARG_OF_PERICENTER":78.667,"MEAN_ANOMALY":281.4656,"EPHEMERIS_TYPE":0,"CLASSIFICATION_TYPE":"U","NORAD_CAT_ID":48229,"ELEMENT_SET_NO":999,"REV_AT_EPOCH":23531,"BSTAR":-0.00024146557,"MEAN_MOTION_DOT":-7.7e-7,"MEAN_MOTION_DDOT":0},{"OBJECT_NAME":"DELTA 1 DEB","OBJECT_ID":"1975-052DG","EPOCH":"2026-03-09T23:16:31.155456","MEAN_MOTION":13.29196997,"ECCENTRICITY":0.01824729,"INCLINATION":99.5659,"RA_OF_ASC_NODE":122.2486,"ARG_OF_PERICENTER":96.2391,"MEAN_ANOMALY":24.952,"EPHEMERIS_TYPE":0,"CLASSIFICATION_TYPE":"U","NORAD_CAT_ID":21386,"ELEMENT_SET_NO":999,"REV_AT_EPOCH":67965,"BSTAR":0.0011358036,"MEAN_MOTION_DOT":5.36e-6,"MEAN_MOTION_DDOT":0}]
